[{"OBJECT_NAME":"STARLINK-3785","OBJECT_ID":"2022-045AW","EPOCH":"2026-03-09T13:22:36.837984","MEAN_MOTION":15.08832218,"ECCENTRICITY":0.0001051,"INCLINATION":53.2185,"RA_OF_ASC_NODE":189.7172,"ARG_OF_PERICENTER":86.4871,"MEAN_ANOMALY":273.6241,"EPHEMERIS_TYPE":0,"CLASSIFICATION_TYPE":"U","NORAD_CAT_ID":52375,"ELEMENT_SET_NO":999,"REV_AT_EPOCH":21590,"BSTAR":-7.8385e-5,"MEAN_MOTION_DOT":-1.535e-5,"MEAN_MOTION_DDOT":0},{"OBJECT_NAME":"FENGYUN 1C DEB","OBJECT_ID":"1999-025AKL","EPOCH":"2026-03-09T14:47:46.011264","MEAN_MOTION":14.88806868,"ECCENTRICITY":0.0088849,"INCLINATION":98.9015,"RA_OF_ASC_NODE":300.2677,"ARG_OF_PERICENTER":245.5096,"MEAN_ANOMALY":169.9787,"EPHEMERIS_TYPE":0,"CLASSIFICATION_TYPE":"U","NORAD_CAT_ID":30546,"ELEMENT_SET_NO":999,"REV_AT_EPOCH":1749,"BSTAR":0.00087367,"MEAN_MOTION_DOT":8.737e-5,"MEAN_MOTION_DDOT":0}]
